{
  "type": "FeatureCollection",
  "features": [
    {
      "type": "Feature",
      "properties": {
        "norad_id": 57400,
        "name": "TIANMU-1 08",
        "group": "weather",
        "lat": -80.18069869363808,
        "lon": 94.54550311081913,
        "alt_km": 492.09548883474054,
        "timestamp": "2025-12-23T11:34:47.828935+00:00",
        "meta_object_name": "TIANMU-1 08",
        "meta_object_id": "2023-101B",
        "meta_epoch": "2025-12-23T04:05:13.517376",
        "meta_mean_motion": 15.28195019,
        "meta_eccentricity": 0.0007079,
        "meta_inclination": 97.2846,
        "meta_ra_of_asc_node": 46.5862,
        "meta_arg_of_pericenter": 54.4488,
        "meta_mean_anomaly": 305.7411,
        "meta_ephemeris_type": 0,
        "meta_classification_type": "U",
        "meta_norad_cat_id": 57400,
        "meta_element_set_no": 999,
        "meta_rev_at_epoch": 13474,
        "meta_bstar": 0.00029895,
        "meta_mean_motion_dot": 8.149e-05,
        "meta_mean_motion_ddot": 0,
        "tle_line1": "1 57400U 23101B   25357.17029534  .00008149  00000+0  29895-3 0  9993",
        "tle_line2": "2 57400  97.2846  46.5862 0007079  54.4488 305.7411 15.28195019134742"
      },
      "geometry": {
        "type": "Point",
        "coordinates": [
          94.54550311081913,
          -80.18069869363808
        ]
      }
    },
    {
      "type": "Feature",
      "properties": {
        "norad_id": 57401,
        "name": "TIANMU-1 09",
        "group": "weather",
        "lat": -9.563429146226133,
        "lon": 47.63342814795287,
        "alt_km": 483.4170498894555,
        "timestamp": "2025-12-23T11:34:47.828950+00:00",
        "meta_object_name": "TIANMU-1 09",
        "meta_object_id": "2023-101C",
        "meta_epoch": "2025-12-23T03:45:53.042688",
        "meta_mean_motion": 15.28229357,
        "meta_eccentricity": 0.0006347,
        "meta_inclination": 97.2803,
        "meta_ra_of_asc_node": 46.081,
        "meta_arg_of_pericenter": 55.3501,
        "meta_mean_anomaly": 304.8337,
        "meta_ephemeris_type": 0,
        "meta_classification_type": "U",
        "meta_norad_cat_id": 57401,
        "meta_element_set_no": 999,
        "meta_rev_at_epoch": 13474,
        "meta_bstar": 0.00031278,
        "meta_mean_motion_dot": 8.537e-05,
        "meta_mean_motion_ddot": 0,
        "tle_line1": "1 57401U 23101C   25357.15686392  .00008537  00000+0  31278-3 0  9992",
        "tle_line2": "2 57401  97.2803  46.0810 0006347  55.3501 304.8337 15.28229357134747"
      },
      "geometry": {
        "type": "Point",
        "coordinates": [
          47.63342814795287,
          -9.563429146226133
        ]
      }
    },
    {
      "type": "Feature",
      "properties": {
        "norad_id": 57402,
        "name": "TIANMU-1 10",
        "group": "weather",
        "lat": 17.500925426941915,
        "lon": -130.4268002775724,
        "alt_km": 483.5940827254244,
        "timestamp": "2025-12-23T11:34:47.828966+00:00",
        "meta_object_name": "TIANMU-1 10",
        "meta_object_id": "2023-101D",
        "meta_epoch": "2025-12-23T04:35:13.710624",
        "meta_mean_motion": 15.28221823,
        "meta_eccentricity": 0.0008069,
        "meta_inclination": 97.2883,
        "meta_ra_of_asc_node": 46.9753,
        "meta_arg_of_pericenter": 52.9922,
        "meta_mean_anomaly": 307.2055,
        "meta_ephemeris_type": 0,
        "meta_classification_type": "U",
        "meta_norad_cat_id": 57402,
        "meta_element_set_no": 999,
        "meta_rev_at_epoch": 13474,
        "meta_bstar": 0.00030002,
        "meta_mean_motion_dot": 8.186e-05,
        "meta_mean_motion_ddot": 0,
        "tle_line1": "1 57402U 23101D   25357.19113091  .00008186  00000+0  30002-3 0  9992",
        "tle_line2": "2 57402  97.2883  46.9753 0008069  52.9922 307.2055 15.28221823134748"
      },
      "geometry": {
        "type": "Point",
        "coordinates": [
          -130.4268002775724,
          17.500925426941915
        ]
      }
    },
    {
      "type": "Feature",
      "properties": {
        "norad_id": 57490,
        "name": "FENGYUN 3F",
        "group": "weather",
        "lat": -22.09761337752987,
        "lon": -117.96527509510355,
        "alt_km": 830.9776218254283,
        "timestamp": "2025-12-23T11:34:47.828983+00:00",
        "meta_object_name": "FENGYUN 3F",
        "meta_object_id": "2023-111A",
        "meta_epoch": "2025-12-23T03:51:55.991808",
        "meta_mean_motion": 14.19896255,
        "meta_eccentricity": 8.02e-05,
        "meta_inclination": 98.7069,
        "meta_ra_of_asc_node": 65.2857,
        "meta_arg_of_pericenter": 115.4758,
        "meta_mean_anomaly": 244.6502,
        "meta_ephemeris_type": 0,
        "meta_classification_type": "U",
        "meta_norad_cat_id": 57490,
        "meta_element_set_no": 999,
        "meta_rev_at_epoch": 12388,
        "meta_bstar": 6.4803e-05,
        "meta_mean_motion_dot": 9.4e-07,
        "meta_mean_motion_ddot": 0,
        "tle_line1": "1 57490U 23111A   25357.16106472  .00000094  00000+0  64803-4 0  9999",
        "tle_line2": "2 57490  98.7069  65.2857 0000802 115.4758 244.6502 14.19896255123885"
      },
      "geometry": {
        "type": "Point",
        "coordinates": [
          -117.96527509510355,
          -22.09761337752987
        ]
      }
    },
    {
      "type": "Feature",
      "properties": {
        "norad_id": 58584,
        "name": "ARKTIKA-M 2",
        "group": "weather",
        "lat": 61.87223499447856,
        "lon": -115.39454034764815,
        "alt_km": 37692.52261327474,
        "timestamp": "2025-12-23T11:34:47.829000+00:00",
        "meta_object_name": "ARKTIKA-M 2",
        "meta_object_id": "2023-198A",
        "meta_epoch": "2025-12-22T07:11:23.769888",
        "meta_mean_motion": 2.00602601,
        "meta_eccentricity": 0.68656622,
        "meta_inclination": 63.2256,
        "meta_ra_of_asc_node": 173.8511,
        "meta_arg_of_pericenter": 268.066,
        "meta_mean_anomaly": 18.8407,
        "meta_ephemeris_type": 0,
        "meta_classification_type": "U",
        "meta_norad_cat_id": 58584,
        "meta_element_set_no": 999,
        "meta_rev_at_epoch": 1477,
        "meta_bstar": 0,
        "meta_mean_motion_dot": 2.07e-06,
        "meta_mean_motion_ddot": 0,
        "tle_line1": "1 58584U 23198A   25356.29958067  .00000207  00000+0  00000+0 0  9997",
        "tle_line2": "2 58584  63.2256 173.8511 6865662 268.0660  18.8407  2.00602601 14773"
      },
      "geometry": {
        "type": "Point",
        "coordinates": [
          -115.39454034764815,
          61.87223499447856
        ]
      }
    },
    {
      "type": "Feature",
      "properties": {
        "norad_id": 58645,
        "name": "TIANMU-1 11",
        "group": "weather",
        "lat": -26.392127297573126,
        "lon": -166.7604177112303,
        "alt_km": 494.6752052003094,
        "timestamp": "2025-12-23T11:34:47.829016+00:00",
        "meta_object_name": "TIANMU-1 11",
        "meta_object_id": "2023-205A",
        "meta_epoch": "2025-12-23T04:22:33.547872",
        "meta_mean_motion": 15.24719595,
        "meta_eccentricity": 0.0007528,
        "meta_inclination": 97.3593,
        "meta_ra_of_asc_node": 16.6219,
        "meta_arg_of_pericenter": 265.7195,
        "meta_mean_anomaly": 94.3183,
        "meta_ephemeris_type": 0,
        "meta_classification_type": "U",
        "meta_norad_cat_id": 58645,
        "meta_element_set_no": 999,
        "meta_rev_at_epoch": 11068,
        "meta_bstar": 0.0002637,
        "meta_mean_motion_dot": 6.459e-05,
        "meta_mean_motion_ddot": 0,
        "tle_line1": "1 58645U 23205A   25357.18233273  .00006459  00000+0  26370-3 0  9995",
        "tle_line2": "2 58645  97.3593  16.6219 0007528 265.7195  94.3183 15.24719595110680"
      },
      "geometry": {
        "type": "Point",
        "coordinates": [
          -166.7604177112303,
          -26.392127297573126
        ]
      }
    },
    {
      "type": "Feature",
      "properties": {
        "norad_id": 58646,
        "name": "TIANMU-1 12",
        "group": "weather",
        "lat": 53.6223570682538,
        "lon": 6.6157150196745285,
        "alt_km": 490.96824325112266,
        "timestamp": "2025-12-23T11:34:47.829031+00:00",
        "meta_object_name": "TIANMU-1 12",
        "meta_object_id": "2023-205B",
        "meta_epoch": "2025-12-23T03:27:59.646240",
        "meta_mean_motion": 15.24604852,
        "meta_eccentricity": 0.0005898,
        "meta_inclination": 97.3581,
        "meta_ra_of_asc_node": 16.3867,
        "meta_arg_of_pericenter": 243.8662,
        "meta_mean_anomaly": 116.197,
        "meta_ephemeris_type": 0,
        "meta_classification_type": "U",
        "meta_norad_cat_id": 58646,
        "meta_element_set_no": 999,
        "meta_rev_at_epoch": 11066,
        "meta_bstar": 0.00029542,
        "meta_mean_motion_dot": 7.218e-05,
        "meta_mean_motion_ddot": 0,
        "tle_line1": "1 58646U 23205B   25357.14444035  .00007218  00000+0  29542-3 0  9990",
        "tle_line2": "2 58646  97.3581  16.3867 0005898 243.8662 116.1970 15.24604852110662"
      },
      "geometry": {
        "type": "Point",
        "coordinates": [
          6.6157150196745285,
          53.6223570682538
        ]
      }
    }
  ]
}